KUIPER-00594            
1 69279U 26118N   26164.21803268  .00027796  00000+0  72633-3 0  9994
2 69279  51.8723  72.3298 0001057  77.6391 282.4715 15.38561376  3375
KUIPER-00595            
1 69280U 26118P   26164.21995965  .00024736  00000+0  64997-3 0  9997
2 69280  51.8720  72.3451 0001932 124.4065 235.7106 15.38455498  3402
KUIPER-00596            
1 69281U 26118Q   26164.24553055  .00005506  00000+0  16863-3 0  9994
2 69281  51.8551  72.5033 0012070 169.1553 190.9695 15.35345958  3373
KUIPER-00597            
1 69282U 26118R   26164.23259434  .00020412  00000+0  56521-3 0  9996
2 69282  51.8650  72.4284 0007265 157.2246 202.9064 15.36932763  3379
KUIPER-00599            
1 69283U 26118S   26164.23061080  .00023137  00000+0  63179-3 0  9999
2 69283  51.8694  72.4167 0006370 149.4535 210.6824 15.37291362  3372
KUIPER-00600            
1 69284U 26118T   26164.23605642  .00022249  00000+0  62052-3 0  9990
2 69284  51.8639  72.4506 0009025 159.0469 201.0889 15.36639781  3377
KUIPER-00601            
1 69285U 26118U   26164.22785607  .00024104  00000+0  65218-3 0  9999
2 69285  51.8706  72.3975 0004859 139.6497 220.4851 15.37559065  3378
KUIPER-00602            
1 69286U 26118V   26164.22332348  .00023656  00000+0  62964-3 0  9996
2 69286  51.8707  72.3683 0003098 132.2723 227.8527 15.38083791  3371
KUIPER-00603            
1 69287U 26118W   26164.22893292  .00015827  00000+0  43349-3 0  9994
2 69287  51.8672  72.4055 0005559 145.7960 214.3386 15.37470194  3373
KUIPER-00605            
1 69288U 26118X   26164.23331725  .00024461  00000+0  67301-3 0  9992
2 69288  51.8659  72.4336 0007699 150.5781 209.5640 15.37014866  3372
KUIPER-00606            
1 69289U 26118Y   26164.22677432  .00023257  00000+0  62770-3 0  9997
2 69289  51.8699  72.3904 0004911 136.9631 223.1741 15.37657214  3377
KUIPER-00607            
1 69290U 26118Z   26164.22976875  .00023186  00000+0  63204-3 0  9996
2 69290  51.8682  72.4112 0006255 147.1150 213.0227 15.37344459  3377
KUIPER-00608            
1 69291U 26118AA  26164.24075584 -.00005301  00000+0 -13985-3 0  9998
2 69291  51.8604  72.4771 0008959 160.4334 199.6997 15.35568864  3377
KUIPER-00610            
1 69292U 26118AB  26164.22172107  .00023545  00000+0  62265-3 0  9999
2 69292  51.8728  72.3538 0002866 124.3101 235.8157 15.38286366  3375
KUIPER-00613            
1 69293U 26118AC  26164.24482615  .00019949  00000+0  58439-3 0  9991
2 69293  51.8629  72.5047 0010359 171.4817 188.6347 15.35159625  3376
KUIPER-00618            
1 69294U 26118AD  26164.21848616  .00023755  00000+0  62294-3 0  9990
2 69294  51.8724  72.3306 0001782  83.1499 276.9691 15.38542253  3373
KUIPER-00620            
1 69295U 26118AE  26164.22100805  .00018704  00000+0  49702-3 0  9990
2 69295  51.8719  72.3495 0003220 110.8313 249.3020 15.38288813  3378
STARLINK-37501          
1 69296U 26119A   26164.22281256  .00149589  00000+0  80037-3 0  9994
2 69296  97.2823 189.8299 0001293  78.8676 281.2737 15.79917693  3413
STARLINK-37496          
1 69297U 26119B   26164.22329157  .00212906  00000+0  11271-2 0  9995
2 69297  97.2821 189.8298 0000843  72.9798 287.1562 15.79984640  3418
STARLINK-37519          
1 69298U 26119C   26164.21781575  .00169140  00000+0  86324-3 0  9994
2 69298  97.2826 189.8373 0000315 255.8950 104.2284 15.80905025  3416
STARLINK-37455          
1 69299U 26119D   26163.58826481 -.00255334  00000+0 -14432-2 0  9993
2 69299  97.2829 189.1634 0004054  36.6104 323.5440 15.79682093  3317
STARLINK-37456          
1 69300U 26119E   26164.21701967  .00289957  00000+0  14575-2 0  9992
2 69300  97.2822 189.8379 0000950  69.9301 290.2069 15.80924273  3414
STARLINK-37630          
1 69301U 26119F   26164.25002315 -.02573444  00000+0 -29556-1 0  9993
2 69301  97.2835 189.8346 0001663  67.9493  33.8958 15.65571556  3418
STARLINK-37804          
1 69302U 26119G   26164.25002315 -.02609280  00000+0 -29639-1 0  9994
2 69302  97.2837 189.8371 0001702  64.4406  42.3974 15.65898134  3416
STARLINK-37730          
1 69303U 26119H   26164.21478875  .00215124  00000+0  10948-2 0  9999
2 69303  97.2821 189.8414 0001594 108.4492 251.6950 15.80847495  3411
STARLINK-37731          
1 69304U 26119J   26164.25002315 -.02596741  00000+0 -30861-1 0  9992
2 69304  97.2840 189.8394 0001629  76.6697  35.6872 15.64754318  3418
STARLINK-37734          
1 69305U 26119K   26164.21373660  .00146203  00000+0  75153-3 0  9998
2 69305  97.2823 189.8431 0001605  92.3684 267.7768 15.80808855  3413
STARLINK-37701          
1 69306U 26119L   26164.21347183  .00127629  00000+0  65705-3 0  9993
2 69306  97.2824 189.8425 0001566  90.6375 269.5073 15.80825596  3412
STARLINK-37732          
1 69307U 26119M   26164.21305360  .00156465  00000+0  80230-3 0  9995
2 69307  97.2824 189.8442 0001287  89.2255 270.9161 15.80835879  3412
STARLINK-37689          
1 69308U 26119N   26164.25002315 -.02554910  00000+0 -29987-1 0  9995
2 69308  97.2836 189.8450 0002009  74.6834  52.5544 15.64999100  3418
