OBJECT_NAME,OBJECT_ID,EPOCH,MEAN_MOTION,ECCENTRICITY,INCLINATION,RA_OF_ASC_NODE,ARG_OF_PERICENTER,MEAN_ANOMALY,EPHEMERIS_TYPE,CLASSIFICATION_TYPE,NORAD_CAT_ID,ELEMENT_SET_NO,REV_AT_EPOCH,BSTAR,MEAN_MOTION_DOT,MEAN_MOTION_DDOT
KUIPER-00594,2026-118N,2026-06-13T05:13:58.023552,15.38561376,.00010578,51.8723,72.3298,77.6391,282.4715,0,U,69279,999,337,.72632757E-3,.27796E-3,0
KUIPER-00595,2026-118P,2026-06-13T05:16:44.513760,15.38455498,.0001932,51.8720,72.3451,124.4065,235.7106,0,U,69280,999,340,.64997435E-3,.24736E-3,0
KUIPER-00596,2026-118Q,2026-06-13T05:53:33.839520,15.35345958,.00120705,51.8551,72.5033,169.1553,190.9695,0,U,69281,999,337,.16863393E-3,.5506E-4,0
KUIPER-00597,2026-118R,2026-06-13T05:34:56.150976,15.36932763,.00072657,51.8650,72.4284,157.2246,202.9064,0,U,69282,999,337,.56521457E-3,.20412E-3,0
KUIPER-00599,2026-118S,2026-06-13T05:32:04.773120,15.37291362,.00063708,51.8694,72.4167,149.4535,210.6824,0,U,69283,999,337,.63179344E-3,.23137E-3,0
KUIPER-00600,2026-118T,2026-06-13T05:39:55.274688,15.36639781,.0009025,51.8639,72.4506,159.0469,201.0889,0,U,69284,999,337,.62052222E-3,.22249E-3,0
KUIPER-00601,2026-118U,2026-06-13T05:28:06.764448,15.37559065,.00048594,51.8706,72.3975,139.6497,220.4851,0,U,69285,999,337,.65217944E-3,.24104E-3,0
KUIPER-00602,2026-118V,2026-06-13T05:21:35.148672,15.38083791,.00030984,51.8707,72.3683,132.2723,227.8527,0,U,69286,999,337,.62963932E-3,.23656E-3,0
KUIPER-00603,2026-118W,2026-06-13T05:29:39.804288,15.37470194,.00055597,51.8672,72.4055,145.7960,214.3386,0,U,69287,999,337,.43349295E-3,.15827E-3,0
KUIPER-00605,2026-118X,2026-06-13T05:35:58.610400,15.37014866,.00076997,51.8659,72.4336,150.5781,209.5640,0,U,69288,999,337,.67300809E-3,.24461E-3,0
KUIPER-00606,2026-118Y,2026-06-13T05:26:33.301248,15.37657214,.00049118,51.8699,72.3904,136.9631,223.1741,0,U,69289,999,337,.62770048E-3,.23257E-3,0
KUIPER-00607,2026-118Z,2026-06-13T05:30:52.020000,15.37344459,.00062554,51.8682,72.4112,147.1150,213.0227,0,U,69290,999,337,.63204421E-3,.23186E-3,0
KUIPER-00608,2026-118AA,2026-06-13T05:46:41.304576,15.35568864,.00089591,51.8604,72.4771,160.4334,199.6997,0,U,69291,999,337,-.13984992E-3,-.5301E-4,0
KUIPER-00610,2026-118AB,2026-06-13T05:19:16.700448,15.38286366,.00028669,51.8728,72.3538,124.3101,235.8157,0,U,69292,999,337,.62265385E-3,.23545E-3,0
KUIPER-00613,2026-118AC,2026-06-13T05:52:32.979360,15.35159625,.00103591,51.8629,72.5047,171.4817,188.6347,0,U,69293,999,337,.58439483E-3,.19949E-3,0
KUIPER-00618,2026-118AD,2026-06-13T05:14:37.204224,15.38542253,.00017824,51.8724,72.3306,83.1499,276.9691,0,U,69294,999,337,.62293977E-3,.23755E-3,0
KUIPER-00620,2026-118AE,2026-06-13T05:18:15.095520,15.38288813,.00032209,51.8719,72.3495,110.8313,249.3020,0,U,69295,999,337,.49701874E-3,.18704E-3,0
STARLINK-37501,2026-119A,2026-06-13T05:20:51.005184,15.79917693,.00012939,97.2823,189.8299,78.8676,281.2737,0,U,69296,999,341,.80036948E-3,.149589E-2,0
STARLINK-37496,2026-119B,2026-06-13T05:21:32.391648,15.79984640,.00008438,97.2821,189.8298,72.9798,287.1562,0,U,69297,999,341,.1127088E-2,.212906E-2,0
STARLINK-37519,2026-119C,2026-06-13T05:13:39.280800,15.80905025,.00003152,97.2826,189.8373,255.8950,104.2284,0,U,69298,999,341,.86323573E-3,.16914E-2,0
STARLINK-37455,2026-119D,2026-06-12T14:07:06.079584,15.79682093,.00040545,97.2829,189.1634,36.6104,323.5440,0,U,69299,999,331,-.14431533E-2,-.255334E-2,0
STARLINK-37456,2026-119E,2026-06-13T05:12:30.499488,15.80924273,.00009506,97.2822,189.8379,69.9301,290.2069,0,U,69300,999,341,.14575273E-2,.289957E-2,0
STARLINK-37630,2026-119F,2026-06-13T06:00:02.000160,15.65571556,.00016632,97.2835,189.8346,67.9493,33.8958,0,U,69301,999,341,-.29555965E-1,-.2573444E-1,0
STARLINK-37804,2026-119G,2026-06-13T06:00:02.000160,15.65898134,.00017027,97.2837,189.8371,64.4406,42.3974,0,U,69302,999,341,-.29639117E-1,-.260928E-1,0
STARLINK-37730,2026-119H,2026-06-13T05:09:17.748000,15.80847495,.0001594,97.2821,189.8414,108.4492,251.6950,0,U,69303,999,341,.10947865E-2,.215124E-2,0
STARLINK-37731,2026-119J,2026-06-13T06:00:02.000160,15.64754318,.00016297,97.2840,189.8394,76.6697,35.6872,0,U,69304,999,341,-.30861308E-1,-.2596741E-1,0
STARLINK-37734,2026-119K,2026-06-13T05:07:46.842240,15.80808855,.00016059,97.2823,189.8431,92.3684,267.7768,0,U,69305,999,341,.75153458E-3,.146203E-2,0
STARLINK-37701,2026-119L,2026-06-13T05:07:23.966112,15.80825596,.00015662,97.2824,189.8425,90.6375,269.5073,0,U,69306,999,341,.65705244E-3,.127629E-2,0
STARLINK-37732,2026-119M,2026-06-13T05:06:47.831040,15.80835879,.00012873,97.2824,189.8442,89.2255,270.9161,0,U,69307,999,341,.8023022E-3,.156465E-2,0
STARLINK-37689,2026-119N,2026-06-13T06:00:02.000160,15.64999100,.00020098,97.2836,189.8450,74.6834,52.5544,0,U,69308,999,341,-.29986511E-1,-.255491E-1,0
